start=new Date('2022-05-10T00:00:00.000Z').valueOf();
sats=[{"FILE":"3438010","NORAD_CAT_ID":"47726","APOAPSIS":"548.316","REV_AT_EPOCH":"6687","RA_OF_ASC_NODE":"5.6213","TLE_LINE1":"1 47726U 21017E   22129.87780782  .00000848  00000-0  75839-4 0  9996","EPHEMERIS_TYPE":"0","TIME_SYSTEM":"UTC","MEAN_ANOMALY":"292.7849","CENTER_NAME":"EARTH","ECCENTRICITY":"0.00015860","INCLINATION":"53.0559","MEAN_MOTION_DDOT":"0.0000000000000","SEMIMAJOR_AXIS":"6925.353","PERIAPSIS":"546.120","BSTAR":"0.00007583900000","DECAY_DATE":null,"OBJECT_TYPE":"PAYLOAD","ARG_OF_PERICENTER":"67.3308","MEAN_MOTION":"15.06398508","ELEMENT_SET_NO":"999","PERIOD":"95.592","MEAN_MOTION_DOT":"0.00000848","RCS_SIZE":"MEDIUM","GP_ID":"203141994","MEAN_ELEMENT_THEORY":"SGP4","CLASSIFICATION_TYPE":"U","TLE_LINE2":"2 47726  53.0559   5.6213 0001586  67.3308 292.7849 15.06398508 66872","OBJECT_NAME":"STARLINK-2126","SITE":"AFETR","LAUNCH_DATE":"2021-03-04","REF_FRAME":"TEME","COUNTRY_CODE":"US","EPOCH":"2022-05-09T21:04:02.595648","OBJECT_ID":"2021-017E"},{"NORAD_CAT_ID":"47727","APOAPSIS":"548.438","REV_AT_EPOCH":"6801","FILE":"3438010","TIME_SYSTEM":"UTC","EPHEMERIS_TYPE":"0","CENTER_NAME":"EARTH","MEAN_ANOMALY":"290.7048","RA_OF_ASC_NODE":"286.1443","TLE_LINE1":"1 47727U 21017F   22129.76260358  .00001752  00000-0  13653-3 0  9997","INCLINATION":"53.0558","ECCENTRICITY":"0.00017380","SEMIMAJOR_AXIS":"6925.370","PERIAPSIS":"546.031","BSTAR":"0.00013653000000","MEAN_MOTION_DDOT":"0.0000000000000","ELEMENT_SET_NO":"999","MEAN_MOTION":"15.06393159","ARG_OF_PERICENTER":"69.4127","DECAY_DATE":null,"OBJECT_TYPE":"PAYLOAD","GP_ID":"203140757","CLASSIFICATION_TYPE":"U","MEAN_ELEMENT_THEORY":"SGP4","PERIOD":"95.593","MEAN_MOTION_DOT":"0.00001752","RCS_SIZE":"LARGE","TLE_LINE2":"2 47727  53.0558 286.1443 0001738  69.4127 290.7048 15.06393159 68018","REF_FRAME":"TEME","OBJECT_NAME":"STARLINK-2129","SITE":"AFETR","LAUNCH_DATE":"2021-03-04","OBJECT_ID":"2021-017F","EPOCH":"2022-05-09T18:18:08.949312","COUNTRY_CODE":"US"},{"OBJECT_ID":"2021-017G","COUNTRY_CODE":"US","EPOCH":"2022-05-09T22:02:25.116000","TLE_LINE2":"2 47728  53.0550   5.4491 0001449  67.8423 292.2719 15.06405926 66944","SITE":"AFETR","OBJECT_NAME":"STARLINK-2131","LAUNCH_DATE":"2021-03-04","REF_FRAME":"TEME","GP_ID":"203141004","MEAN_ELEMENT_THEORY":"SGP4","CLASSIFICATION_TYPE":"U","PERIOD":"95.592","MEAN_MOTION_DOT":"0.00001637","RCS_SIZE":"LARGE","ARG_OF_PERICENTER":"67.8423","MEAN_MOTION":"15.06405926","ELEMENT_SET_NO":"999","OBJECT_TYPE":"PAYLOAD","DECAY_DATE":null,"SEMIMAJOR_AXIS":"6925.330","PERIAPSIS":"546.192","BSTAR":"0.00012875000000","MEAN_MOTION_DDOT":"0.0000000000000","INCLINATION":"53.0550","ECCENTRICITY":"0.00014490","EPHEMERIS_TYPE":"0","TIME_SYSTEM":"UTC","MEAN_ANOMALY":"292.2719","CENTER_NAME":"EARTH","RA_OF_ASC_NODE":"5.4491","TLE_LINE1":"1 47728U 21017G   22129.91834625  .00001637  00000-0  12875-3 0  9996","APOAPSIS":"548.199","NORAD_CAT_ID":"47728","REV_AT_EPOCH":"6694","FILE":"3438010"},{"TLE_LINE2":"2 47729  53.0566 311.2878 0001432  75.8817 284.2331 15.06397279 67625","REF_FRAME":"TEME","LAUNCH_DATE":"2021-03-04","SITE":"AFETR","OBJECT_NAME":"STARLINK-2132","OBJECT_ID":"2021-017H","EPOCH":"2022-05-09T17:29:42.896544","COUNTRY_CODE":"US","ELEMENT_SET_NO":"999","ARG_OF_PERICENTER":"75.8817","MEAN_MOTION":"15.06397279","OBJECT_TYPE":"PAYLOAD","DECAY_DATE":null,"GP_ID":"203141757","CLASSIFICATION_TYPE":"U","MEAN_ELEMENT_THEORY":"SGP4","PERIOD":"95.592","RCS_SIZE":"LARGE","MEAN_MOTION_DOT":"0.00001569","INCLINATION":"53.0566","ECCENTRICITY":"0.00014320","PERIAPSIS":"546.230","SEMIMAJOR_AXIS":"6925.357","BSTAR":"0.00012424000000","MEAN_MOTION_DDOT":"0.0000000000000","NORAD_CAT_ID":"47729","APOAPSIS":"548.214","REV_AT_EPOCH":"6762","FILE":"3438010","TIME_SYSTEM":"UTC","EPHEMERIS_TYPE":"0","CENTER_NAME":"EARTH","MEAN_ANOMALY":"284.2331","RA_OF_ASC_NODE":"311.2878","TLE_LINE1":"1 47729U 21017H   22129.72896871  .00001569  00000-0  12424-3 0  9991"},{"REV_AT_EPOCH":"6667","APOAPSIS":"548.584","NORAD_CAT_ID":"47730","FILE":"3438010","CENTER_NAME":"EARTH","MEAN_ANOMALY":"305.6092","TIME_SYSTEM":"UTC","EPHEMERIS_TYPE":"0","TLE_LINE1":"1 47730U 21017J   22129.87364369  .00001534  00000-0  12189-3 0  9991","RA_OF_ASC_NODE":"20.6503","INCLINATION":"53.0556","ECCENTRICITY":"0.00019970","BSTAR":"0.00012189000000","SEMIMAJOR_AXIS":"6925.336","PERIAPSIS":"545.818","MEAN_MOTION_DDOT":"0.0000000000000","ELEMENT_SET_NO":"999","MEAN_MOTION":"15.06403993","ARG_OF_PERICENTER":"54.5083","DECAY_DATE":null,"OBJECT_TYPE":"PAYLOAD","CLASSIFICATION_TYPE":"U","MEAN_ELEMENT_THEORY":"SGP4","GP_ID":"203142494","RCS_SIZE":"LARGE","MEAN_MOTION_DOT":"0.00001534","PERIOD":"95.592","REF_FRAME":"TEME","SITE":"AFETR","LAUNCH_DATE":"2021-03-04","OBJECT_NAME":"STARLINK-2140","TLE_LINE2":"2 47730  53.0556  20.6503 0001997  54.5083 305.6092 15.06403993 66674","OBJECT_ID":"2021-017J","EPOCH":"2022-05-09T20:58:02.814816","COUNTRY_CODE":"US"},{"SEMIMAJOR_AXIS":"6925.345","PERIAPSIS":"545.949","BSTAR":"-0.00001502200000","MEAN_MOTION_DDOT":"0.0000000000000","INCLINATION":"53.0564","ECCENTRICITY":"0.00018200","TIME_SYSTEM":"UTC","EPHEMERIS_TYPE":"0","CENTER_NAME":"EARTH","MEAN_ANOMALY":"307.4802","RA_OF_ASC_NODE":"15.6145","TLE_LINE1":"1 47731U 21017K   22129.88057527 -.00000505  00000-0 -15022-4 0  9997","NORAD_CAT_ID":"47731","APOAPSIS":"548.470","REV_AT_EPOCH":"6675","FILE":"3438010","OBJECT_ID":"2021-017K","EPOCH":"2022-05-09T21:08:01.703328","COUNTRY_CODE":"US","TLE_LINE2":"2 47731  53.0564  15.6145 0001820  52.6352 307.4802 15.06401269 66755","REF_FRAME":"TEME","LAUNCH_DATE":"2021-03-04","SITE":"AFETR","OBJECT_NAME":"STARLINK-2141","GP_ID":"203141256","CLASSIFICATION_TYPE":"U","MEAN_ELEMENT_THEORY":"SGP4","PERIOD":"95.592","RCS_SIZE":"LARGE","MEAN_MOTION_DOT":"-0.00000505","ELEMENT_SET_NO":"999","MEAN_MOTION":"15.06401269","ARG_OF_PERICENTER":"52.6352","DECAY_DATE":null,"OBJECT_TYPE":"PAYLOAD"},{"EPOCH":"2022-05-09T18:20:08.254752","COUNTRY_CODE":"US","OBJECT_ID":"2021-017L","REF_FRAME":"TEME","SITE":"AFETR","OBJECT_NAME":"STARLINK-2142","LAUNCH_DATE":"2021-03-04","TLE_LINE2":"2 47732  53.0564 291.1277 0001117  86.3251 273.7865 15.06400230 67925","MEAN_MOTION_DOT":"0.00002656","RCS_SIZE":"LARGE","PERIOD":"95.592","CLASSIFICATION_TYPE":"U","MEAN_ELEMENT_THEORY":"SGP4","GP_ID":"203141503","DECAY_DATE":null,"OBJECT_TYPE":"PAYLOAD","ELEMENT_SET_NO":"999","ARG_OF_PERICENTER":"86.3251","MEAN_MOTION":"15.06400230","MEAN_MOTION_DDOT":"0.0000000000000","BSTAR":"0.00019712000000","SEMIMAJOR_AXIS":"6925.348","PERIAPSIS":"546.439","ECCENTRICITY":"0.00011170","INCLINATION":"53.0564","TLE_LINE1":"1 47732U 21017L   22129.76398443  .00002656  00000-0  19712-3 0  9996","RA_OF_ASC_NODE":"291.1277","CENTER_NAME":"EARTH","MEAN_ANOMALY":"273.7865","TIME_SYSTEM":"UTC","EPHEMERIS_TYPE":"0","FILE":"3438010","REV_AT_EPOCH":"6792","APOAPSIS":"547.986","NORAD_CAT_ID":"47732"},{"TLE_LINE2":"2 47733  53.0565  25.6538 0001883  51.0259 309.0897 15.06409713 65970","REF_FRAME":"TEME","SITE":"AFETR","OBJECT_NAME":"STARLINK-2143","LAUNCH_DATE":"2021-03-04","OBJECT_ID":"2021-017M","EPOCH":"2022-05-09T20:50:46.207968","COUNTRY_CODE":"US","ELEMENT_SET_NO":"999","MEAN_MOTION":"15.06409713","ARG_OF_PERICENTER":"51.0259","OBJECT_TYPE":"PAYLOAD","DECAY_DATE":null,"GP_ID":"203110922","CLASSIFICATION_TYPE":"U","MEAN_ELEMENT_THEORY":"SGP4","PERIOD":"95.592","RCS_SIZE":"LARGE","MEAN_MOTION_DOT":"0.00001046","INCLINATION":"53.0565","ECCENTRICITY":"0.00018830","PERIAPSIS":"545.880","SEMIMAJOR_AXIS":"6925.319","BSTAR":"0.00008912000000","MEAN_MOTION_DDOT":"0.0000000000000","NORAD_CAT_ID":"47733","APOAPSIS":"548.488","REV_AT_EPOCH":"6597","FILE":"3437634","TIME_SYSTEM":"UTC","EPHEMERIS_TYPE":"0","CENTER_NAME":"EARTH","MEAN_ANOMALY":"309.0897","RA_OF_ASC_NODE":"25.6538","TLE_LINE1":"1 47733U 21017M   22129.86859037  .00001046  00000-0  89120-4 0  9992"},{"MEAN_MOTION_DDOT":"0.0000000000000","BSTAR":"0.00009173600000","SEMIMAJOR_AXIS":"6925.351","PERIAPSIS":"546.097","ECCENTRICITY":"0.00016150","INCLINATION":"53.0564","TLE_LINE1":"1 47734U 21017N   22129.88794468  .00001085  00000-0  91736-4 0  9990","RA_OF_ASC_NODE":"15.5784","MEAN_ANOMALY":"289.7309","CENTER_NAME":"EARTH","EPHEMERIS_TYPE":"0","TIME_SYSTEM":"UTC","FILE":"3438010","REV_AT_EPOCH":"6676","APOAPSIS":"548.334","NORAD_CAT_ID":"47734","COUNTRY_CODE":"US","EPOCH":"2022-05-09T21:18:38.420352","OBJECT_ID":"2021-017N","SITE":"AFETR","LAUNCH_DATE":"2021-03-04","OBJECT_NAME":"STARLINK-2144","REF_FRAME":"TEME","TLE_LINE2":"2 47734  53.0564  15.5784 0001615  70.3854 289.7309 15.06399299 66766","MEAN_MOTION_DOT":"0.00001085","RCS_SIZE":"LARGE","PERIOD":"95.592","MEAN_ELEMENT_THEORY":"SGP4","CLASSIFICATION_TYPE":"U","GP_ID":"203141995","DECAY_DATE":null,"OBJECT_TYPE":"PAYLOAD","ARG_OF_PERICENTER":"70.3854","MEAN_MOTION":"15.06399299","ELEMENT_SET_NO":"999"},{"TLE_LINE2":"2 47735  53.0567 300.5672 0001572  65.8313 294.2840 15.06407503 67797","REF_FRAME":"TEME","SITE":"AFETR","LAUNCH_DATE":"2021-03-04","OBJECT_NAME":"STARLINK-2146","EPOCH":"2022-05-09T21:19:16.203936","COUNTRY_CODE":"US","OBJECT_ID":"2021-017P","OBJECT_TYPE":"PAYLOAD","DECAY_DATE":null,"ELEMENT_SET_NO":"999","MEAN_MOTION":"15.06407503","ARG_OF_PERICENTER":"65.8313","PERIOD":"95.592","MEAN_MOTION_DOT":"0.00001995","RCS_SIZE":"LARGE","GP_ID":"203140758","CLASSIFICATION_TYPE":"U","MEAN_ELEMENT_THEORY":"SGP4","ECCENTRICITY":"0.00015720","INCLINATION":"53.0567","MEAN_MOTION_DDOT":"0.0000000000000","SEMIMAJOR_AXIS":"6925.326","PERIAPSIS":"546.102","BSTAR":"0.00015277000000","FILE":"3438010","NORAD_CAT_ID":"47735","APOAPSIS":"548.279","REV_AT_EPOCH":"6779","RA_OF_ASC_NODE":"300.5672","TLE_LINE1":"1 47735U 21017P   22129.88838199  .00001995  00000-0  15277-3 0  9996","TIME_SYSTEM":"UTC","EPHEMERIS_TYPE":"0","CENTER_NAME":"EARTH","MEAN_ANOMALY":"294.2840"}];
